{
  "norad_id": 67534,
  "name": "STARLINK-36576",
  "history": [
    {
      "epoch": "2026-03-28T16:26:52.385856Z",
      "apogee_km": 345.03376968163957,
      "perigee_km": 343.0585233858619,
      "latitude_deg": -5.828048917432598e-06,
      "longitude_deg": -99.26740013441555,
      "height_km": 347.0458536404928,
      "semi_major_axis_km": 6722.183146533751,
      "eccentricity": 0.00014692,
      "inclination_deg": 97.2857,
      "raan_deg": 333.5531,
      "arg_perigee_deg": 80.3087,
      "mean_anomaly_deg": 279.8344,
      "mean_motion_rev_day": 15.75205614
    },
    {
      "epoch": "2026-03-29T04:38:42.717408Z",
      "apogee_km": 345.08855015579593,
      "perigee_km": 343.112212365706,
      "latitude_deg": 3.5077138308500796e-06,
      "longitude_deg": 77.80525795498087,
      "height_km": 347.75261553151927,
      "semi_major_axis_km": 6722.237381260751,
      "eccentricity": 0.000147,
      "inclination_deg": 97.2849,
      "raan_deg": 334.0864,
      "arg_perigee_deg": 119.4498,
      "mean_anomaly_deg": 240.6914,
      "mean_motion_rev_day": 15.75186551
    },
    {
      "epoch": "2026-03-30T05:02:21.917760Z",
      "apogee_km": 344.49339578386025,
      "perigee_km": 343.18261065823117,
      "latitude_deg": 5.5168055615911213e-05,
      "longitude_deg": 71.95658212862638,
      "height_km": 347.1120385441274,
      "semi_major_axis_km": 6721.975003221045,
      "eccentricity": 9.75e-05,
      "inclination_deg": 97.2848,
      "raan_deg": 335.1529,
      "arg_perigee_deg": 99.4045,
      "mean_anomaly_deg": 260.7331,
      "mean_motion_rev_day": 15.75278778
    },
    {
      "epoch": "2026-03-30T05:02:21.918624Z",
      "apogee_km": 344.49326134435887,
      "perigee_km": 343.18274509773164,
      "latitude_deg": 5.741220048859782e-05,
      "longitude_deg": 71.95657823350173,
      "height_km": 347.1120165728102,
      "semi_major_axis_km": 6721.975003221045,
      "eccentricity": 9.748e-05,
      "inclination_deg": 97.2848,
      "raan_deg": 335.1529,
      "arg_perigee_deg": 99.4045,
      "mean_anomaly_deg": 260.7331,
      "mean_motion_rev_day": 15.75278778
    },
    {
      "epoch": "2026-03-30T09:36:49.125312Z",
      "apogee_km": 345.18694156606307,
      "perigee_km": 342.7270584876924,
      "latitude_deg": 7.795381355765238e-05,
      "longitude_deg": 3.35535793391068,
      "height_km": 346.75622478036763,
      "semi_major_axis_km": 6722.094000026877,
      "eccentricity": 0.00018297,
      "inclination_deg": 97.2855,
      "raan_deg": 335.3529,
      "arg_perigee_deg": 72.6772,
      "mean_anomaly_deg": 287.4694,
      "mean_motion_rev_day": 15.75236949
    },
    {
      "epoch": "2026-03-31T05:26:04.295040Z",
      "apogee_km": 345.2844942544498,
      "perigee_km": 343.11721253051564,
      "latitude_deg": 2.5785854082239676e-05,
      "longitude_deg": 66.0947437400985,
      "height_km": 347.17053265428115,
      "semi_major_axis_km": 6722.337853392482,
      "eccentricity": 0.0001612,
      "inclination_deg": 97.2852,
      "raan_deg": 336.2195,
      "arg_perigee_deg": 79.5804,
      "mean_anomaly_deg": 280.5643,
      "mean_motion_rev_day": 15.75151237
    },
    {
      "epoch": "2026-04-01T05:49:44.707584Z",
      "apogee_km": 344.8420032758413,
      "perigee_km": 343.06199410898716,
      "latitude_deg": 8.580832731065973e-06,
      "longitude_deg": 60.2407127722292,
      "height_km": 347.34596953504786,
      "semi_major_axis_km": 6722.088998692414,
      "eccentricity": 0.0001324,
      "inclination_deg": 97.2842,
      "raan_deg": 337.2857,
      "arg_perigee_deg": 104.8135,
      "mean_anomaly_deg": 255.3277,
      "mean_motion_rev_day": 15.75238707
    },
    {
      "epoch": "2026-04-02T04:41:56.592960Z",
      "apogee_km": 344.7717335778025,
      "perigee_km": 342.9610947381643,
      "latitude_deg": 6.550307359525279e-05,
      "longitude_deg": 77.2524479890572,
      "height_km": 346.7108848551549,
      "semi_major_axis_km": 6722.003414157984,
      "eccentricity": 0.00013468,
      "inclination_deg": 97.2845,
      "raan_deg": 338.2862,
      "arg_perigee_deg": 69.1732,
      "mean_anomaly_deg": 290.9678,
      "mean_motion_rev_day": 15.75268791
    },
    {
      "epoch": "2026-04-03T20:20:25.926720Z",
      "apogee_km": 344.7083572409829,
      "perigee_km": 343.0695273162555,
      "latitude_deg": -4.5893849635747096e-05,
      "longitude_deg": -157.26507915399762,
      "height_km": 347.28276965399874,
      "semi_major_axis_km": 6722.025942278619,
      "eccentricity": 0.0001219,
      "inclination_deg": 97.2842,
      "raan_deg": 340.0189,
      "arg_perigee_deg": 106.0967,
      "mean_anomaly_deg": 254.0432,
      "mean_motion_rev_day": 15.75260872
    },
    {
      "epoch": "2026-04-04T16:09:39.358080Z",
      "apogee_km": 345.1944114050575,
      "perigee_km": 343.208632605656,
      "latitude_deg": -2.1368993479749896e-05,
      "longitude_deg": -94.51684172832532,
      "height_km": 346.6939326310305,
      "semi_major_axis_km": 6722.338522005356,
      "eccentricity": 0.0001477,
      "inclination_deg": 97.2835,
      "raan_deg": 340.8871,
      "arg_perigee_deg": 47.2457,
      "mean_anomaly_deg": 312.8932,
      "mean_motion_rev_day": 15.75151002
    },
    {
      "epoch": "2026-04-05T15:01:51.100032Z",
      "apogee_km": 344.98790967313835,
      "perigee_km": 342.44032809908003,
      "latitude_deg": -4.911034766261261e-05,
      "longitude_deg": -77.50649901674456,
      "height_km": 347.22190209843495,
      "semi_major_axis_km": 6721.851118886108,
      "eccentricity": 0.0001895,
      "inclination_deg": 97.2834,
      "raan_deg": 341.8856,
      "arg_perigee_deg": 105.5798,
      "mean_anomaly_deg": 254.5676,
      "mean_motion_rev_day": 15.75322327
    },
    {
      "epoch": "2026-04-06T04:45:10.613664Z",
      "apogee_km": 346.0514435077421,
      "perigee_km": 342.30886065649247,
      "latitude_deg": 9.00957211258104e-06,
      "longitude_deg": 76.69863954265743,
      "height_km": 347.5670265832067,
      "semi_major_axis_km": 6722.317152082117,
      "eccentricity": 0.00027837,
      "inclination_deg": 97.2841,
      "raan_deg": 342.4856,
      "arg_perigee_deg": 96.8492,
      "mean_anomaly_deg": 263.309,
      "mean_motion_rev_day": 15.75158513
    },
    {
      "epoch": "2026-04-07T15:49:12.447840Z",
      "apogee_km": 345.1890159975428,
      "perigee_km": 342.9115389479348,
      "latitude_deg": -1.9169043111978935e-05,
      "longitude_deg": -89.21666094919341,
      "height_km": 346.83859540173404,
      "semi_major_axis_km": 6722.187277472738,
      "eccentricity": 0.0001694,
      "inclination_deg": 97.2852,
      "raan_deg": 344.0181,
      "arg_perigee_deg": 70.6473,
      "mean_anomaly_deg": 289.4975,
      "mean_motion_rev_day": 15.75204162
    },
    {
      "epoch": "2026-04-08T14:41:23.959104Z",
      "apogee_km": 345.14637379126634,
      "perigee_km": 342.7311319732553,
      "latitude_deg": 3.505809831255399e-05,
      "longitude_deg": -72.20416628237913,
      "height_km": 346.8880931928016,
      "semi_major_axis_km": 6722.0757528822605,
      "eccentricity": 0.00017965,
      "inclination_deg": 97.2854,
      "raan_deg": 345.0178,
      "arg_perigee_deg": 79.6905,
      "mean_anomaly_deg": 280.4563,
      "mean_motion_rev_day": 15.75243363
    },
    {
      "epoch": "2026-04-09T15:05:04.598016Z",
      "apogee_km": 344.9418865832813,
      "perigee_km": 342.6470191852677,
      "latitude_deg": 7.883485663316565e-06,
      "longitude_deg": -78.0590461768211,
      "height_km": 347.46640315827665,
      "semi_major_axis_km": 6721.931452884274,
      "eccentricity": 0.0001707,
      "inclination_deg": 97.2849,
      "raan_deg": 346.0841,
      "arg_perigee_deg": 116.1574,
      "mean_anomaly_deg": 243.9867,
      "mean_motion_rev_day": 15.75294087
    },
    {
      "epoch": "2026-04-10T04:48:23.559552Z",
      "apogee_km": 345.32619296403755,
      "perigee_km": 342.7346629772055,
      "latitude_deg": -2.664967417734502e-05,
      "longitude_deg": 76.14811045928482,
      "height_km": 347.93155723742484,
      "semi_major_axis_km": 6722.167427970621,
      "eccentricity": 0.00019276,
      "inclination_deg": 97.2842,
      "raan_deg": 346.6838,
      "arg_perigee_deg": 124.5649,
      "mean_anomaly_deg": 235.5798,
      "mean_motion_rev_day": 15.75211139
    },
    {
      "epoch": "2026-04-11T15:52:25.951008Z",
      "apogee_km": 344.69475768059147,
      "perigee_km": 343.27235697066044,
      "latitude_deg": 6.66277303593669e-05,
      "longitude_deg": -89.76923284342757,
      "height_km": 347.12733910026964,
      "semi_major_axis_km": 6722.120557325626,
      "eccentricity": 0.0001058,
      "inclination_deg": 97.2851,
      "raan_deg": 348.2166,
      "arg_perigee_deg": 88.1551,
      "mean_anomaly_deg": 271.9836,
      "mean_motion_rev_day": 15.75227614
    },
    {
      "epoch": "2026-04-13T05:59:25.489248Z",
      "apogee_km": 345.26414620901596,
      "perigee_km": 342.7493922249514,
      "latitude_deg": -5.011647983471683e-05,
      "longitude_deg": 58.58341449842216,
      "height_km": 347.16753763569824,
      "semi_major_axis_km": 6722.143769216983,
      "eccentricity": 0.00018705,
      "inclination_deg": 97.2846,
      "raan_deg": 349.8827,
      "arg_perigee_deg": 89.7918,
      "mean_anomaly_deg": 270.3561,
      "mean_motion_rev_day": 15.75219455
    },
    {
      "epoch": "2026-04-14T15:31:58.881792Z",
      "apogee_km": 344.72888752692506,
      "perigee_km": 343.37772727513766,
      "latitude_deg": -3.0741244923246405e-06,
      "longitude_deg": -84.46687166679749,
      "height_km": 346.75826231204167,
      "semi_major_axis_km": 6722.190307401031,
      "eccentricity": 0.0001005,
      "inclination_deg": 97.2858,
      "raan_deg": 351.3491,
      "arg_perigee_deg": 46.8428,
      "mean_anomaly_deg": 313.2921,
      "mean_motion_rev_day": 15.75203097
    }
  ]
}